CCSDS_OMM_VERS = 2.0
CREATION_DATE  = 
ORIGINATOR     = 

OBJECT_NAME    = DELTA 2 R/B(1)
OBJECT_ID      = 1990-008B
CENTER_NAME    = EARTH
REF_FRAME      = TEME
TIME_SYSTEM    = UTC
MEAN_ELEMENT_THEORY = SGP/SGP4

EPOCH          = 2026-02-25T15:01:33.864960
MEAN_MOTION    = 15.54127966
ECCENTRICITY   = .0087926
INCLINATION    = 35.6032
RA_OF_ASC_NODE = 253.9186
ARG_OF_PERICENTER = 146.4838
MEAN_ANOMALY   = 214.1501

EPHEMERIS_TYPE = 0
CLASSIFICATION_TYPE = U
NORAD_CAT_ID   = 20453
ELEMENT_SET_NO = 999
REV_AT_EPOCH   = 92425
BSTAR          = .69916E-3
MEAN_MOTION_DOT = .56036E-3
MEAN_MOTION_DDOT = 0

CCSDS_OMM_VERS = 2.0
CREATION_DATE  = 
ORIGINATOR     = 

OBJECT_NAME    = COSMOS 2058
OBJECT_ID      = 1990-010A
CENTER_NAME    = EARTH
REF_FRAME      = TEME
TIME_SYSTEM    = UTC
MEAN_ELEMENT_THEORY = SGP/SGP4

EPOCH          = 2026-02-25T11:09:49.434336
MEAN_MOTION    = 15.11196297
ECCENTRICITY   = .00102195
INCLINATION    = 82.4672
RA_OF_ASC_NODE = 59.4716
ARG_OF_PERICENTER = 24.4028
MEAN_ANOMALY   = 335.7683

EPHEMERIS_TYPE = 0
CLASSIFICATION_TYPE = U
NORAD_CAT_ID   = 20465
ELEMENT_SET_NO = 999
REV_AT_EPOCH   = 94039
BSTAR          = .22707931E-3
MEAN_MOTION_DOT = .3844E-4
MEAN_MOTION_DDOT = 0

CCSDS_OMM_VERS = 2.0
CREATION_DATE  = 
ORIGINATOR     = 

OBJECT_NAME    = SL-14 R/B
OBJECT_ID      = 1990-010B
CENTER_NAME    = EARTH
REF_FRAME      = TEME
TIME_SYSTEM    = UTC
MEAN_ELEMENT_THEORY = SGP/SGP4

EPOCH          = 2026-02-25T13:06:55.292256
MEAN_MOTION    = 14.83556968
ECCENTRICITY   = .0019387
INCLINATION    = 82.4998
RA_OF_ASC_NODE = 278.7978
ARG_OF_PERICENTER = 344.3071
MEAN_ANOMALY   = 15.7541

EPHEMERIS_TYPE = 0
CLASSIFICATION_TYPE = U
NORAD_CAT_ID   = 20466
ELEMENT_SET_NO = 999
REV_AT_EPOCH   = 92668
BSTAR          = .41661E-4
MEAN_MOTION_DOT = .368E-5
MEAN_MOTION_DDOT = 0

CCSDS_OMM_VERS = 2.0
CREATION_DATE  = 
ORIGINATOR     = 

OBJECT_NAME    = SL-14 R/B
OBJECT_ID      = 1990-018B
CENTER_NAME    = EARTH
REF_FRAME      = TEME
TIME_SYSTEM    = UTC
MEAN_ELEMENT_THEORY = SGP/SGP4

EPOCH          = 2026-02-25T11:38:32.593344
MEAN_MOTION    = 14.82129288
ECCENTRICITY   = .00174271
INCLINATION    = 82.5184
RA_OF_ASC_NODE = 234.4986
ARG_OF_PERICENTER = 129.1921
MEAN_ANOMALY   = 231.0845

EPHEMERIS_TYPE = 0
CLASSIFICATION_TYPE = U
NORAD_CAT_ID   = 20511
ELEMENT_SET_NO = 999
REV_AT_EPOCH   = 92077
BSTAR          = .57647776E-4
MEAN_MOTION_DOT = .483E-5
MEAN_MOTION_DDOT = 0

CCSDS_OMM_VERS = 2.0
CREATION_DATE  = 
ORIGINATOR     = 

OBJECT_NAME    = HST
OBJECT_ID      = 1990-037B
CENTER_NAME    = EARTH
REF_FRAME      = TEME
TIME_SYSTEM    = UTC
MEAN_ELEMENT_THEORY = SGP/SGP4

EPOCH          = 2026-02-25T11:29:56.735232
MEAN_MOTION    = 15.29264569
ECCENTRICITY   = .0001281
INCLINATION    = 28.4690
RA_OF_ASC_NODE = 123.2830
ARG_OF_PERICENTER = 356.3147
MEAN_ANOMALY   = 3.7439

EPHEMERIS_TYPE = 0
CLASSIFICATION_TYPE = U
NORAD_CAT_ID   = 20580
ELEMENT_SET_NO = 999
REV_AT_EPOCH   = 77144
BSTAR          = .23324267E-3
MEAN_MOTION_DOT = .7044E-4
MEAN_MOTION_DDOT = 0

CCSDS_OMM_VERS = 2.0
CREATION_DATE  = 
ORIGINATOR     = 

OBJECT_NAME    = SL-16 R/B
OBJECT_ID      = 1990-046B
CENTER_NAME    = EARTH
REF_FRAME      = TEME
TIME_SYSTEM    = UTC
MEAN_ELEMENT_THEORY = SGP/SGP4

EPOCH          = 2026-02-25T18:00:25.172640
MEAN_MOTION    = 14.15015354
ECCENTRICITY   = .0015853
INCLINATION    = 71.0015
RA_OF_ASC_NODE = 322.9888
ARG_OF_PERICENTER = 315.9451
MEAN_ANOMALY   = 44.0408

EPHEMERIS_TYPE = 0
CLASSIFICATION_TYPE = U
NORAD_CAT_ID   = 20625
ELEMENT_SET_NO = 999
REV_AT_EPOCH   = 84670
BSTAR          = .56168E-5
MEAN_MOTION_DOT = -.37E-6
MEAN_MOTION_DDOT = 0

CCSDS_OMM_VERS = 2.0
CREATION_DATE  = 
ORIGINATOR     = 

OBJECT_NAME    = COSMOS 2084
OBJECT_ID      = 1990-055A
CENTER_NAME    = EARTH
REF_FRAME      = TEME
TIME_SYSTEM    = UTC
MEAN_ELEMENT_THEORY = SGP/SGP4

EPOCH          = 2026-02-25T07:15:00.001440
MEAN_MOTION    = 15.05559891
ECCENTRICITY   = .0019014
INCLINATION    = 62.7912
RA_OF_ASC_NODE = 17.8234
ARG_OF_PERICENTER = 187.1020
MEAN_ANOMALY   = 172.9814

EPHEMERIS_TYPE = 0
CLASSIFICATION_TYPE = U
NORAD_CAT_ID   = 20663
ELEMENT_SET_NO = 999
REV_AT_EPOCH   = 93445
BSTAR          = .20792E-3
MEAN_MOTION_DOT = .2818E-4
MEAN_MOTION_DDOT = 0

CCSDS_OMM_VERS = 2.0
CREATION_DATE  = 
ORIGINATOR     = 

OBJECT_NAME    = SL-6 R/B(2)
OBJECT_ID      = 1990-055D
CENTER_NAME    = EARTH
REF_FRAME      = TEME
TIME_SYSTEM    = UTC
MEAN_ELEMENT_THEORY = SGP/SGP4

EPOCH          = 2026-02-25T16:00:21.956256
MEAN_MOTION    = 15.03529340
ECCENTRICITY   = .0022887
INCLINATION    = 62.7830
RA_OF_ASC_NODE = 294.7354
ARG_OF_PERICENTER = 343.9673
MEAN_ANOMALY   = 16.0699

EPHEMERIS_TYPE = 0
CLASSIFICATION_TYPE = U
NORAD_CAT_ID   = 20666
ELEMENT_SET_NO = 999
REV_AT_EPOCH   = 93638
BSTAR          = .14799E-3
MEAN_MOTION_DOT = .1838E-4
MEAN_MOTION_DDOT = 0

CCSDS_OMM_VERS = 2.0
CREATION_DATE  = 
ORIGINATOR     = 

OBJECT_NAME    = SL-8 R/B
OBJECT_ID      = 1990-078B
CENTER_NAME    = EARTH
REF_FRAME      = TEME
TIME_SYSTEM    = UTC
MEAN_ELEMENT_THEORY = SGP/SGP4

EPOCH          = 2026-02-25T13:05:40.666848
MEAN_MOTION    = 14.88610790
ECCENTRICITY   = .0364983
INCLINATION    = 82.9002
RA_OF_ASC_NODE = 262.2300
ARG_OF_PERICENTER = 54.7535
MEAN_ANOMALY   = 308.7265

EPHEMERIS_TYPE = 0
CLASSIFICATION_TYPE = U
NORAD_CAT_ID   = 20775
ELEMENT_SET_NO = 999
REV_AT_EPOCH   = 80749
BSTAR          = .36817E-3
MEAN_MOTION_DOT = .12559E-3
MEAN_MOTION_DDOT = 0

CCSDS_OMM_VERS = 2.0
CREATION_DATE  = 
ORIGINATOR     = 

OBJECT_NAME    = SL-8 R/B
OBJECT_ID      = 1991-006B
CENTER_NAME    = EARTH
REF_FRAME      = TEME
TIME_SYSTEM    = UTC
MEAN_ELEMENT_THEORY = SGP/SGP4

EPOCH          = 2026-02-25T10:07:40.058688
MEAN_MOTION    = 13.77492849
ECCENTRICITY   = .00236246
INCLINATION    = 82.9460
RA_OF_ASC_NODE = 179.1653
ARG_OF_PERICENTER = 71.2528
MEAN_ANOMALY   = 352.9306

EPHEMERIS_TYPE = 0
CLASSIFICATION_TYPE = U
NORAD_CAT_ID   = 21088
ELEMENT_SET_NO = 999
REV_AT_EPOCH   = 76238
BSTAR          = .34635E-4
MEAN_MOTION_DOT = .5E-6
MEAN_MOTION_DDOT = 0

CCSDS_OMM_VERS = 2.0
CREATION_DATE  = 
ORIGINATOR     = 

OBJECT_NAME    = OKEAN-3
OBJECT_ID      = 1991-039A
CENTER_NAME    = EARTH
REF_FRAME      = TEME
TIME_SYSTEM    = UTC
MEAN_ELEMENT_THEORY = SGP/SGP4

EPOCH          = 2026-02-25T13:50:02.338080
MEAN_MOTION    = 15.04706288
ECCENTRICITY   = .0014835
INCLINATION    = 82.5200
RA_OF_ASC_NODE = 348.5757
ARG_OF_PERICENTER = 19.0130
MEAN_ANOMALY   = 341.1647

EPHEMERIS_TYPE = 0
CLASSIFICATION_TYPE = U
NORAD_CAT_ID   = 21397
ELEMENT_SET_NO = 999
REV_AT_EPOCH   = 86321
BSTAR          = .20847E-3
MEAN_MOTION_DOT = .2968E-4
MEAN_MOTION_DDOT = 0

CCSDS_OMM_VERS = 2.0
CREATION_DATE  = 
ORIGINATOR     = 

OBJECT_NAME    = COSMOS 2151
OBJECT_ID      = 1991-042A
CENTER_NAME    = EARTH
REF_FRAME      = TEME
TIME_SYSTEM    = UTC
MEAN_ELEMENT_THEORY = SGP/SGP4

EPOCH          = 2026-02-25T19:26:11.992128
MEAN_MOTION    = 15.00052205
ECCENTRICITY   = .0014132
INCLINATION    = 82.4937
RA_OF_ASC_NODE = 95.1383
ARG_OF_PERICENTER = 99.0733
MEAN_ANOMALY   = 261.2091

EPHEMERIS_TYPE = 0
CLASSIFICATION_TYPE = U
NORAD_CAT_ID   = 21422
ELEMENT_SET_NO = 999
REV_AT_EPOCH   = 86141
BSTAR          = .10623E-3
MEAN_MOTION_DOT = .1352E-4
MEAN_MOTION_DDOT = 0

